GLOBALSTAR M002 [-]     
1 25164U 98008C   23271.45915372 -.00000059  00000+0  33704-3 0  9998
2 25164  52.0048  14.1060 0001895  85.2167 274.8869 11.61495415111120
GLOBALSTAR M003 [-]     
1 25165U 98008D   23271.52168410  .00000011  00000+0  10696-2 0  9991
2 25165  51.9730 107.0342 0008578 108.5362 267.0918 12.11939868157112
GLOBALSTAR M014 [-]     
1 25306U 98023A   23271.42153444 -.00000035  00000+0  79190-3 0  9997
2 25306  51.9843 310.6235 0000545 285.2252 175.7654 11.65460138117973
GLOBALSTAR M006 [-]     
1 25307U 98023B   23271.52206406 -.00000055  00000+0  42515-3 0  9999
2 25307  51.9966 339.3833 0003789  66.0025  38.7203 11.58153984144101
GLOBALSTAR M015 [-]     
1 25308U 98023C   23271.56850816 -.00000039  00000+0  78301-3 0  9998
2 25308  51.9839  48.9790 0012942  43.8822  36.8718 11.48850281121945
GLOBALSTAR M008 [-]     
1 25309U 98023D   23271.34341413 -.00000085  00000+0  88576-4 0  9990
2 25309  51.9955 218.2658 0002323 302.7385 225.4602 12.36028309160209
